[{"OBJECT_NAME":"TECHNOSAT","OBJECT_ID":"2017-042E","EPOCH":"2026-03-09T21:27:07.546176","MEAN_MOTION":15.04288119,"ECCENTRICITY":0.00196291,"INCLINATION":97.4156,"RA_OF_ASC_NODE":230.4429,"ARG_OF_PERICENTER":75.0719,"MEAN_ANOMALY":285.2679,"EPHEMERIS_TYPE":0,"CLASSIFICATION_TYPE":"U","NORAD_CAT_ID":42829,"ELEMENT_SET_NO":999,"REV_AT_EPOCH":47177,"BSTAR":0.00032015047,"MEAN_MOTION_DOT":4.417e-5,"MEAN_MOTION_DDOT":0},{"OBJECT_NAME":"STARLINK-5545","OBJECT_ID":"2023-064AE","EPOCH":"2026-03-09T12:43:53.603328","MEAN_MOTION":14.98330169,"ECCENTRICITY":0.00029529,"INCLINATION":69.9995,"RA_OF_ASC_NODE":124.9344,"ARG_OF_PERICENTER":272.6194,"MEAN_ANOMALY":87.4627,"EPHEMERIS_TYPE":0,"CLASSIFICATION_TYPE":"U","NORAD_CAT_ID":56476,"ELEMENT_SET_NO":999,"REV_AT_EPOCH":15571,"BSTAR":-9.6141793e-5,"MEAN_MOTION_DOT":-1.24e-5,"MEAN_MOTION_DDOT":0}]
